CCSDS_OMM_VERS = 2.0
CREATION_DATE  = 
ORIGINATOR     = 

OBJECT_NAME    = CYGNUS NG-23
OBJECT_ID      = 2025-208A
CENTER_NAME    = EARTH
REF_FRAME      = TEME
TIME_SYSTEM    = UTC
MEAN_ELEMENT_THEORY = SGP/SGP4

EPOCH          = 2025-12-11T21:30:28.324224
MEAN_MOTION    = 15.49521399
ECCENTRICITY   = .00032978
INCLINATION    = 51.6307
RA_OF_ASC_NODE = 146.6565
ARG_OF_PERICENTER = 237.1442
MEAN_ANOMALY   = 122.9229

EPHEMERIS_TYPE = 0
CLASSIFICATION_TYPE = U
NORAD_CAT_ID   = 65616
ELEMENT_SET_NO = 999
REV_AT_EPOCH   = 22
BSTAR          = .26380738E-3
MEAN_MOTION_DOT = .14378E-3
MEAN_MOTION_DDOT = 0

CCSDS_OMM_VERS = 2.0
CREATION_DATE  = 
ORIGINATOR     = 

OBJECT_NAME    = DRAGONFLY
OBJECT_ID      = 1998-067XH
CENTER_NAME    = EARTH
REF_FRAME      = TEME
TIME_SYSTEM    = UTC
MEAN_ELEMENT_THEORY = SGP/SGP4

EPOCH          = 2025-12-11T23:24:46.286208
MEAN_MOTION    = 15.71570854
ECCENTRICITY   = .00067276
INCLINATION    = 51.6238
RA_OF_ASC_NODE = 139.6768
ARG_OF_PERICENTER = 272.7665
MEAN_ANOMALY   = 87.2563

EPHEMERIS_TYPE = 0
CLASSIFICATION_TYPE = U
NORAD_CAT_ID   = 65729
ELEMENT_SET_NO = 999
REV_AT_EPOCH   = 1304
BSTAR          = .1427359E-2
MEAN_MOTION_DOT = .191153E-2
MEAN_MOTION_DDOT = 0

CCSDS_OMM_VERS = 2.0
CREATION_DATE  = 
ORIGINATOR     = 

OBJECT_NAME    = RSP-03
OBJECT_ID      = 1998-067XL
CENTER_NAME    = EARTH
REF_FRAME      = TEME
TIME_SYSTEM    = UTC
MEAN_ELEMENT_THEORY = SGP/SGP4

EPOCH          = 2025-12-11T11:09:18.310464
MEAN_MOTION    = 15.68184189
ECCENTRICITY   = .00058259
INCLINATION    = 51.6260
RA_OF_ASC_NODE = 143.0256
ARG_OF_PERICENTER = 242.1359
MEAN_ANOMALY   = 117.9048

EPHEMERIS_TYPE = 0
CLASSIFICATION_TYPE = U
NORAD_CAT_ID   = 65732
ELEMENT_SET_NO = 999
REV_AT_EPOCH   = 1296
BSTAR          = .16947067E-2
MEAN_MOTION_DOT = .197326E-2
MEAN_MOTION_DDOT = 0

CCSDS_OMM_VERS = 2.0
CREATION_DATE  = 
ORIGINATOR     = 

OBJECT_NAME    = GHS-01
OBJECT_ID      = 1998-067XM
CENTER_NAME    = EARTH
REF_FRAME      = TEME
TIME_SYSTEM    = UTC
MEAN_ELEMENT_THEORY = SGP/SGP4

EPOCH          = 2025-12-11T17:42:59.976288
MEAN_MOTION    = 15.74255219
ECCENTRICITY   = .0007045
INCLINATION    = 51.6266
RA_OF_ASC_NODE = 140.3500
ARG_OF_PERICENTER = 274.7166
MEAN_ANOMALY   = 85.3028

EPHEMERIS_TYPE = 0
CLASSIFICATION_TYPE = U
NORAD_CAT_ID   = 65733
ELEMENT_SET_NO = 999
REV_AT_EPOCH   = 1302
BSTAR          = .15474625E-2
MEAN_MOTION_DOT = .2337E-2
MEAN_MOTION_DDOT = 0

CCSDS_OMM_VERS = 2.0
CREATION_DATE  = 
ORIGINATOR     = 

OBJECT_NAME    = YOTSUBA-KULOVER
OBJECT_ID      = 1998-067XN
CENTER_NAME    = EARTH
REF_FRAME      = TEME
TIME_SYSTEM    = UTC
MEAN_ELEMENT_THEORY = SGP/SGP4

EPOCH          = 2025-12-11T19:34:16.498272
MEAN_MOTION    = 15.59284629
ECCENTRICITY   = .00014791
INCLINATION    = 51.6283
RA_OF_ASC_NODE = 144.6232
ARG_OF_PERICENTER = 240.6156
MEAN_ANOMALY   = 119.4690

EPHEMERIS_TYPE = 0
CLASSIFICATION_TYPE = U
NORAD_CAT_ID   = 65941
ELEMENT_SET_NO = 999
REV_AT_EPOCH   = 971
BSTAR          = .99850147E-3
MEAN_MOTION_DOT = .80384E-3
MEAN_MOTION_DDOT = 0

CCSDS_OMM_VERS = 2.0
CREATION_DATE  = 
ORIGINATOR     = 

OBJECT_NAME    = BOTAN
OBJECT_ID      = 1998-067XP
CENTER_NAME    = EARTH
REF_FRAME      = TEME
TIME_SYSTEM    = UTC
MEAN_ELEMENT_THEORY = SGP/SGP4

EPOCH          = 2025-12-11T19:45:11.743776
MEAN_MOTION    = 15.62613075
ECCENTRICITY   = .00032624
INCLINATION    = 51.6277
RA_OF_ASC_NODE = 143.9237
ARG_OF_PERICENTER = 230.4423
MEAN_ANOMALY   = 129.6283

EPHEMERIS_TYPE = 0
CLASSIFICATION_TYPE = U
NORAD_CAT_ID   = 65942
ELEMENT_SET_NO = 999
REV_AT_EPOCH   = 972
BSTAR          = .13163982E-2
MEAN_MOTION_DOT = .121329E-2
MEAN_MOTION_DDOT = 0

CCSDS_OMM_VERS = 2.0
CREATION_DATE  = 
ORIGINATOR     = 

OBJECT_NAME    = E-KAGAKU-1
OBJECT_ID      = 1998-067XQ
CENTER_NAME    = EARTH
REF_FRAME      = TEME
TIME_SYSTEM    = UTC
MEAN_ELEMENT_THEORY = SGP/SGP4

EPOCH          = 2025-12-10T06:39:08.237952
MEAN_MOTION    = 15.59004320
ECCENTRICITY   = .00052507
INCLINATION    = 51.6298
RA_OF_ASC_NODE = 152.3458
ARG_OF_PERICENTER = 191.2269
MEAN_ANOMALY   = 168.8608

EPHEMERIS_TYPE = 0
CLASSIFICATION_TYPE = U
NORAD_CAT_ID   = 65943
ELEMENT_SET_NO = 999
REV_AT_EPOCH   = 947
BSTAR          = .12588803E-2
MEAN_MOTION_DOT = .100705E-2
MEAN_MOTION_DDOT = 0

CCSDS_OMM_VERS = 2.0
CREATION_DATE  = 
ORIGINATOR     = 

OBJECT_NAME    = HTV-X1
OBJECT_ID      = 2025-241A
CENTER_NAME    = EARTH
REF_FRAME      = TEME
TIME_SYSTEM    = UTC
MEAN_ELEMENT_THEORY = SGP/SGP4

EPOCH          = 2025-12-11T21:30:28.324224
MEAN_MOTION    = 15.49521399
ECCENTRICITY   = .00032978
INCLINATION    = 51.6307
RA_OF_ASC_NODE = 146.6565
ARG_OF_PERICENTER = 237.1442
MEAN_ANOMALY   = 122.9229

EPHEMERIS_TYPE = 0
CLASSIFICATION_TYPE = U
NORAD_CAT_ID   = 66174
ELEMENT_SET_NO = 999
REV_AT_EPOCH   = 51
BSTAR          = .26380738E-3
MEAN_MOTION_DOT = .14378E-3
MEAN_MOTION_DDOT = 0

CCSDS_OMM_VERS = 2.0
CREATION_DATE  = 
ORIGINATOR     = 

OBJECT_NAME    = SHENZHOU-22
OBJECT_ID      = 2025-272A
CENTER_NAME    = EARTH
REF_FRAME      = TEME
TIME_SYSTEM    = UTC
MEAN_ELEMENT_THEORY = SGP/SGP4

EPOCH          = 2025-12-11T19:37:47.505216
MEAN_MOTION    = 15.59116827
ECCENTRICITY   = .00085427
INCLINATION    = 41.4685
RA_OF_ASC_NODE = 22.3040
ARG_OF_PERICENTER = 22.5495
MEAN_ANOMALY   = 337.5718

EPHEMERIS_TYPE = 0
CLASSIFICATION_TYPE = U
NORAD_CAT_ID   = 66645
ELEMENT_SET_NO = 999
REV_AT_EPOCH   = 26357
BSTAR          = .35527983E-3
MEAN_MOTION_DOT = .28382E-3
MEAN_MOTION_DDOT = 0

