CYGNUS NG-23            
1 65616U 25208A   25345.89616116  .00014378  00000+0  26381-3 0  9993
2 65616  51.6307 146.6565 0003297 237.1442 122.9229 15.49521399   224
DRAGONFLY               
1 65729U 98067XH  25345.97553572  .00191153  00000+0  14274-2 0  9990
2 65729  51.6238 139.6768 0006728 272.7665  87.2563 15.71570854 13046
RSP-03                  
1 65732U 98067XL  25345.46479526  .00197326  00000+0  16947-2 0  9991
2 65732  51.6260 143.0256 0005825 242.1359 117.9048 15.68184189 12961
GHS-01                  
1 65733U 98067XM  25345.73819417  .00233700  00000+0  15475-2 0  9991
2 65733  51.6266 140.3500 0007045 274.7166  85.3028 15.74255219 13027
YOTSUBA-KULOVER         
1 65941U 98067XN  25345.81546873  .00080384  00000+0  99850-3 0  9992
2 65941  51.6283 144.6232 0001479 240.6156 119.4690 15.59284629  9717
BOTAN                   
1 65942U 98067XP  25345.82305259  .00121329  00000+0  13164-2 0  9993
2 65942  51.6277 143.9237 0003262 230.4423 129.6283 15.62613075  9721
E-KAGAKU-1              
1 65943U 98067XQ  25344.27717868  .00100705  00000+0  12589-2 0  9990
2 65943  51.6298 152.3458 0005250 191.2269 168.8608 15.59004320  9476
HTV-X1                  
1 66174U 25241A   25345.89616116  .00014378  00000+0  26381-3 0  9990
2 66174  51.6307 146.6565 0003297 237.1442 122.9229 15.49521399   516
SHENZHOU-22             
1 66645U 25272A   25345.81791094  .00028382  00000+0  35528-3 0  9991
2 66645  41.4685  22.3040 0008542  22.5495 337.5718 15.59116827263576
